start=new Date('2022-12-02T00:00:00.000Z').valueOf();
sats=[{"DECAY_DATE":null,"EPHEMERIS_TYPE":"0","MEAN_MOTION_DOT":"0.00000545","REF_FRAME":"TEME","TIME_SYSTEM":"UTC","BSTAR":"0.00005550700000","INCLINATION":"53.0549","CLASSIFICATION_TYPE":"U","PERIOD":"95.592","FILE":"3678231","OBJECT_NAME":"STARLINK-1982","REV_AT_EPOCH":"10083","ARG_OF_PERICENTER":"58.1909","PERIAPSIS":"546.012","SITE":"AFETR","NORAD_CAT_ID":"47580","EPOCH":"2022-12-01T17:49:59.576160","TLE_LINE2":"2 47580  53.0549 341.4487 0001753  58.1909 301.9251 15.06395947100833","TLE_LINE1":"1 47580U 21009AJ  22335.74305065  .00000545  00000-0  55507-4 0  9991","RCS_SIZE":"LARGE","ELEMENT_SET_NO":"999","MEAN_MOTION_DDOT":"0.0000000000000","COUNTRY_CODE":"US","SEMIMAJOR_AXIS":"6925.361","MEAN_ELEMENT_THEORY":"SGP4","GP_ID":"219304449","LAUNCH_DATE":"2021-02-04","APOAPSIS":"548.440","RA_OF_ASC_NODE":"341.4487","CENTER_NAME":"EARTH","ECCENTRICITY":"0.00017530","OBJECT_ID":"2021-009AJ","OBJECT_TYPE":"PAYLOAD","MEAN_ANOMALY":"301.9251","MEAN_MOTION":"15.06395947"},{"COUNTRY_CODE":"US","MEAN_MOTION_DDOT":"0.0000000000000","ELEMENT_SET_NO":"999","RCS_SIZE":"LARGE","TLE_LINE1":"1 47581U 21009AK  22335.45739048  .00000370  00000-0  43742-4 0  9996","MEAN_ELEMENT_THEORY":"SGP4","SEMIMAJOR_AXIS":"6925.355","CENTER_NAME":"EARTH","ECCENTRICITY":"0.00017350","RA_OF_ASC_NODE":"322.7405","APOAPSIS":"548.421","LAUNCH_DATE":"2021-02-04","GP_ID":"219277642","MEAN_MOTION":"15.06397999","MEAN_ANOMALY":"298.4395","OBJECT_TYPE":"PAYLOAD","OBJECT_ID":"2021-009AK","TIME_SYSTEM":"UTC","REF_FRAME":"TEME","MEAN_MOTION_DOT":"0.00000370","DECAY_DATE":null,"EPHEMERIS_TYPE":"0","BSTAR":"0.00004374200000","PERIOD":"95.592","FILE":"3677821","OBJECT_NAME":"STARLINK-1984","REV_AT_EPOCH":"10167","CLASSIFICATION_TYPE":"U","INCLINATION":"53.0555","TLE_LINE2":"2 47581  53.0555 322.7405 0001735  61.6769 298.4395 15.06397999101677","NORAD_CAT_ID":"47581","EPOCH":"2022-12-01T10:58:38.537472","SITE":"AFETR","ARG_OF_PERICENTER":"61.6769","PERIAPSIS":"546.018"},{"FILE":"3677821","PERIOD":"95.591","REV_AT_EPOCH":"10139","OBJECT_NAME":"STARLINK-1986","CLASSIFICATION_TYPE":"U","INCLINATION":"53.0543","TLE_LINE2":"2 47582  53.0543 342.8038 0001527  58.9849 301.1290 15.06425702101396","EPOCH":"2022-12-01T10:40:02.456832","NORAD_CAT_ID":"47582","SITE":"AFETR","ARG_OF_PERICENTER":"58.9849","PERIAPSIS":"546.077","TIME_SYSTEM":"UTC","REF_FRAME":"TEME","MEAN_MOTION_DOT":"0.00003355","EPHEMERIS_TYPE":"0","DECAY_DATE":null,"BSTAR":"0.00024384000000","CENTER_NAME":"EARTH","ECCENTRICITY":"0.00015270","APOAPSIS":"548.192","RA_OF_ASC_NODE":"342.8038","LAUNCH_DATE":"2021-02-04","GP_ID":"219277512","MEAN_MOTION":"15.06425702","MEAN_ANOMALY":"301.1290","OBJECT_TYPE":"PAYLOAD","OBJECT_ID":"2021-009AL","COUNTRY_CODE":"US","MEAN_MOTION_DDOT":"0.0000000000000","ELEMENT_SET_NO":"999","RCS_SIZE":"LARGE","TLE_LINE1":"1 47582U 21009AL  22335.44447288  .00003355  00000-0  24384-3 0  9994","MEAN_ELEMENT_THEORY":"SGP4","SEMIMAJOR_AXIS":"6925.270"},{"GP_ID":"219304703","CENTER_NAME":"EARTH","ECCENTRICITY":"0.00014860","APOAPSIS":"548.247","RA_OF_ASC_NODE":"341.4103","LAUNCH_DATE":"2021-02-04","OBJECT_TYPE":"PAYLOAD","OBJECT_ID":"2021-009AM","MEAN_MOTION":"15.06398537","MEAN_ANOMALY":"297.7279","RCS_SIZE":"LARGE","TLE_LINE1":"1 47583U 21009AM  22335.75410717  .00000976  00000-0  84423-4 0  9993","COUNTRY_CODE":"US","MEAN_MOTION_DDOT":"0.0000000000000","ELEMENT_SET_NO":"999","SEMIMAJOR_AXIS":"6925.353","MEAN_ELEMENT_THEORY":"SGP4","INCLINATION":"53.0558","FILE":"3678231","OBJECT_NAME":"STARLINK-1987","PERIOD":"95.592","REV_AT_EPOCH":"10084","CLASSIFICATION_TYPE":"U","SITE":"AFETR","ARG_OF_PERICENTER":"62.3861","PERIAPSIS":"546.189","TLE_LINE2":"2 47583  53.0558 341.4103 0001486  62.3861 297.7279 15.06398537100849","NORAD_CAT_ID":"47583","EPOCH":"2022-12-01T18:05:54.859488","MEAN_MOTION_DOT":"0.00000976","DECAY_DATE":null,"EPHEMERIS_TYPE":"0","TIME_SYSTEM":"UTC","REF_FRAME":"TEME","BSTAR":"0.00008442300000"},{"SEMIMAJOR_AXIS":"6925.366","MEAN_ELEMENT_THEORY":"SGP4","TLE_LINE1":"1 47585U 21009AP  22335.71356506 -.00000003  00000-0  18716-4 0  9990","RCS_SIZE":"LARGE","ELEMENT_SET_NO":"999","COUNTRY_CODE":"US","MEAN_MOTION_DDOT":"0.0000000000000","OBJECT_ID":"2021-009AP","OBJECT_TYPE":"PAYLOAD","MEAN_MOTION":"15.06394219","MEAN_ANOMALY":"302.0584","GP_ID":"219304949","LAUNCH_DATE":"2021-02-04","RA_OF_ASC_NODE":"341.5891","APOAPSIS":"548.400","CENTER_NAME":"EARTH","ECCENTRICITY":"0.00016880","BSTAR":"0.00001871600000","DECAY_DATE":null,"EPHEMERIS_TYPE":"0","MEAN_MOTION_DOT":"-0.00000003","REF_FRAME":"TEME","TIME_SYSTEM":"UTC","PERIAPSIS":"546.062","ARG_OF_PERICENTER":"58.0569","SITE":"AFETR","NORAD_CAT_ID":"47585","EPOCH":"2022-12-01T17:07:32.021184","TLE_LINE2":"2 47585  53.0548 341.5891 0001688  58.0569 302.0584 15.06394219100837","INCLINATION":"53.0548","CLASSIFICATION_TYPE":"U","OBJECT_NAME":"STARLINK-1989","FILE":"3678231","PERIOD":"95.593","REV_AT_EPOCH":"10083"},{"GP_ID":"219265655","ECCENTRICITY":"0.00018180","CENTER_NAME":"EARTH","LAUNCH_DATE":"2021-02-04","APOAPSIS":"548.489","RA_OF_ASC_NODE":"4.3469","OBJECT_ID":"2021-009AQ","OBJECT_TYPE":"PAYLOAD","MEAN_ANOMALY":"307.0051","MEAN_MOTION":"15.06394689","RCS_SIZE":"LARGE","TLE_LINE1":"1 47586U 21009AQ  22335.09985571 -.00000113  00000-0  11352-4 0  9993","ELEMENT_SET_NO":"999","COUNTRY_CODE":"US","MEAN_MOTION_DDOT":"0.0000000000000","SEMIMAJOR_AXIS":"6925.365","MEAN_ELEMENT_THEORY":"SGP4","INCLINATION":"53.0568","CLASSIFICATION_TYPE":"U","FILE":"3677495","OBJECT_NAME":"STARLINK-1990","PERIOD":"95.592","REV_AT_EPOCH":"10046","SITE":"AFETR","ARG_OF_PERICENTER":"53.1105","PERIAPSIS":"545.971","TLE_LINE2":"2 47586  53.0568   4.3469 0001818  53.1105 307.0051 15.06394689100466","NORAD_CAT_ID":"47586","EPOCH":"2022-12-01T02:23:47.533344","MEAN_MOTION_DOT":"-0.00000113","DECAY_DATE":null,"EPHEMERIS_TYPE":"0","REF_FRAME":"TEME","TIME_SYSTEM":"UTC","BSTAR":"0.00001135200000"},{"INCLINATION":"53.0547","CLASSIFICATION_TYPE":"U","FILE":"3677821","PERIOD":"95.593","OBJECT_NAME":"STARLINK-1991","REV_AT_EPOCH":"10151","SITE":"AFETR","ARG_OF_PERICENTER":"65.4524","PERIAPSIS":"546.187","TLE_LINE2":"2 47587  53.0547 333.4782 0001532  65.4524 294.6625 15.06388657101515","NORAD_CAT_ID":"47587","EPOCH":"2022-12-01T07:03:47.437920","MEAN_MOTION_DOT":"-0.00000470","EPHEMERIS_TYPE":"0","DECAY_DATE":null,"REF_FRAME":"TEME","TIME_SYSTEM":"UTC","BSTAR":"-0.00001262900000","GP_ID":"219277638","ECCENTRICITY":"0.00015320","CENTER_NAME":"EARTH","LAUNCH_DATE":"2021-02-04","APOAPSIS":"548.309","RA_OF_ASC_NODE":"333.4782","OBJECT_ID":"2021-009AR","OBJECT_TYPE":"PAYLOAD","MEAN_ANOMALY":"294.6625","MEAN_MOTION":"15.06388657","RCS_SIZE":"LARGE","TLE_LINE1":"1 47587U 21009AR  22335.29429905 -.00000470  00000-0 -12629-4 0  9995","ELEMENT_SET_NO":"999","MEAN_MOTION_DDOT":"0.0000000000000","COUNTRY_CODE":"US","SEMIMAJOR_AXIS":"6925.383","MEAN_ELEMENT_THEORY":"SGP4"},{"MEAN_ELEMENT_THEORY":"SGP4","SEMIMAJOR_AXIS":"6925.323","ELEMENT_SET_NO":"999","COUNTRY_CODE":"US","MEAN_MOTION_DDOT":"0.0000000000000","RCS_SIZE":"LARGE","TLE_LINE1":"1 47588U 21009AS  22335.81675928  .00002668  00000-0  19787-3 0  9992","MEAN_MOTION":"15.06408206","MEAN_ANOMALY":"295.4673","OBJECT_ID":"2021-009AS","OBJECT_TYPE":"PAYLOAD","CENTER_NAME":"EARTH","ECCENTRICITY":"0.00016410","LAUNCH_DATE":"2021-02-04","APOAPSIS":"548.325","RA_OF_ASC_NODE":"341.1164","GP_ID":"219304204","BSTAR":"0.00019787000000","REF_FRAME":"TEME","TIME_SYSTEM":"UTC","MEAN_MOTION_DOT":"0.00002668","EPHEMERIS_TYPE":"0","DECAY_DATE":null,"TLE_LINE2":"2 47588  53.0561 341.1164 0001641  64.6486 295.4673 15.06408206100852","NORAD_CAT_ID":"47588","EPOCH":"2022-12-01T19:36:08.001792","SITE":"AFETR","PERIAPSIS":"546.052","ARG_OF_PERICENTER":"64.6486","CLASSIFICATION_TYPE":"U","FILE":"3678231","REV_AT_EPOCH":"10085","PERIOD":"95.592","OBJECT_NAME":"STARLINK-1993","INCLINATION":"53.0561"},{"MEAN_MOTION":"15.06407577","MEAN_ANOMALY":"305.5236","OBJECT_TYPE":"PAYLOAD","OBJECT_ID":"2021-009AT","APOAPSIS":"548.327","RA_OF_ASC_NODE":"342.5376","LAUNCH_DATE":"2021-02-04","ECCENTRICITY":"0.00016410","CENTER_NAME":"EARTH","GP_ID":"219277633","MEAN_ELEMENT_THEORY":"SGP4","SEMIMAJOR_AXIS":"6925.325","MEAN_MOTION_DDOT":"0.0000000000000","COUNTRY_CODE":"US","ELEMENT_SET_NO":"999","TLE_LINE1":"1 47589U 21009AT  22335.50346855 -.00002511  00000-0 -14968-3 0  9998","RCS_SIZE":"LARGE","NORAD_CAT_ID":"47589","EPOCH":"2022-12-01T12:04:59.682720","TLE_LINE2":"2 47589  53.0572 342.5376 0001641  54.5906 305.5236 15.06407577101400","PERIAPSIS":"546.054","ARG_OF_PERICENTER":"54.5906","SITE":"AFETR","FILE":"3677821","OBJECT_NAME":"STARLINK-1994","PERIOD":"95.592","REV_AT_EPOCH":"10140","CLASSIFICATION_TYPE":"U","INCLINATION":"53.0572","BSTAR":"-0.00014968000000","TIME_SYSTEM":"UTC","REF_FRAME":"TEME","EPHEMERIS_TYPE":"0","DECAY_DATE":null,"MEAN_MOTION_DOT":"-0.00002511"},{"BSTAR":"-0.00000335540000","MEAN_MOTION_DOT":"-0.00000332","DECAY_DATE":null,"EPHEMERIS_TYPE":"0","REF_FRAME":"TEME","TIME_SYSTEM":"UTC","SITE":"AFETR","ARG_OF_PERICENTER":"58.3288","PERIAPSIS":"545.985","TLE_LINE2":"2 47590  53.0551   2.8828 0001801  58.3288 301.7876 15.06393826101117","NORAD_CAT_ID":"47590","EPOCH":"2022-12-01T10:16:10.817472","INCLINATION":"53.0551","CLASSIFICATION_TYPE":"U","FILE":"3677821","OBJECT_NAME":"STARLINK-1995","PERIOD":"95.593","REV_AT_EPOCH":"10111","SEMIMAJOR_AXIS":"6925.367","MEAN_ELEMENT_THEORY":"SGP4","RCS_SIZE":"LARGE","TLE_LINE1":"1 47590U 21009AU  22335.42790298 -.00000332  00000-0 -33554-5 0  9998","ELEMENT_SET_NO":"999","COUNTRY_CODE":"US","MEAN_MOTION_DDOT":"0.0000000000000","OBJECT_ID":"2021-009AU","OBJECT_TYPE":"PAYLOAD","MEAN_ANOMALY":"301.7876","MEAN_MOTION":"15.06393826","GP_ID":"219277500","ECCENTRICITY":"0.00018010","CENTER_NAME":"EARTH","LAUNCH_DATE":"2021-02-04","RA_OF_ASC_NODE":"2.8828","APOAPSIS":"548.480"}];
